{
  "type": "FeatureCollection",
  "features": [
    {
      "type": "Feature",
      "properties": {
        "norad_id": 32314,
        "name": "FENGYUN 1C DEB",
        "group": "fengyun-1c-debris",
        "lat": -65.83972351233561,
        "lon": 121.51397396038834,
        "alt_km": 736.1747926019607,
        "timestamp": "2025-12-21T05:44:51.871876+00:00",
        "meta_object_name": "FENGYUN 1C DEB",
        "meta_object_id": "1999-025CXF",
        "meta_epoch": "2025-12-18T13:08:32.417952",
        "meta_mean_motion": 14.79656862,
        "meta_eccentricity": 0.01487207,
        "meta_inclination": 98.8637,
        "meta_ra_of_asc_node": 98.1883,
        "meta_arg_of_pericenter": 139.4784,
        "meta_mean_anomaly": 221.7612,
        "meta_ephemeris_type": 0,
        "meta_classification_type": "U",
        "meta_norad_cat_id": 32314,
        "meta_element_set_no": 999,
        "meta_rev_at_epoch": 97516,
        "meta_bstar": 0.0010944124,
        "meta_mean_motion_dot": 9.852e-05,
        "meta_mean_motion_ddot": 0,
        "tle_line1": "1 32314U 99025CXF 25352.54759743  .00009852  00000+0  10944-2 0  9992",
        "tle_line2": "2 32314  98.8637  98.1883 0148720 139.4784 221.7612 14.79656862975164"
      },
      "geometry": {
        "type": "Point",
        "coordinates": [
          121.51397396038834,
          -65.83972351233561
        ]
      }
    },
    {
      "type": "Feature",
      "properties": {
        "norad_id": 32316,
        "name": "FENGYUN 1C DEB",
        "group": "fengyun-1c-debris",
        "lat": 3.0863606012794915,
        "lon": -156.64805009770248,
        "alt_km": 732.9818418105142,
        "timestamp": "2025-12-21T05:44:51.871887+00:00",
        "meta_object_name": "FENGYUN 1C DEB",
        "meta_object_id": "1999-025CXH",
        "meta_epoch": "2025-12-19T13:56:17.244096",
        "meta_mean_motion": 14.51952704,
        "meta_eccentricity": 0.0026401,
        "meta_inclination": 99.5285,
        "meta_ra_of_asc_node": 20.9536,
        "meta_arg_of_pericenter": 308.626,
        "meta_mean_anomaly": 202.9731,
        "meta_ephemeris_type": 0,
        "meta_classification_type": "U",
        "meta_norad_cat_id": 32316,
        "meta_element_set_no": 999,
        "meta_rev_at_epoch": 95876,
        "meta_bstar": 0.001205,
        "meta_mean_motion_dot": 4.831e-05,
        "meta_mean_motion_ddot": 0,
        "tle_line1": "1 32316U 99025CXH 25353.58075514  .00004831  00000+0  12050-2 0  9998",
        "tle_line2": "2 32316  99.5285  20.9536 0026401 308.6260 202.9731 14.51952704958765"
      },
      "geometry": {
        "type": "Point",
        "coordinates": [
          -156.64805009770248,
          3.0863606012794915
        ]
      }
    },
    {
      "type": "Feature",
      "properties": {
        "norad_id": 32320,
        "name": "FENGYUN 1C DEB",
        "group": "fengyun-1c-debris",
        "lat": -32.27239587050611,
        "lon": -139.31271991919843,
        "alt_km": 755.0523081001438,
        "timestamp": "2025-12-21T05:44:51.871897+00:00",
        "meta_object_name": "FENGYUN 1C DEB",
        "meta_object_id": "1999-025CXM",
        "meta_epoch": "2025-12-19T20:27:32.982912",
        "meta_mean_motion": 14.3617206,
        "meta_eccentricity": 0.00563043,
        "meta_inclination": 100.3749,
        "meta_ra_of_asc_node": 212.377,
        "meta_arg_of_pericenter": 28.0804,
        "meta_mean_anomaly": 332.3393,
        "meta_ephemeris_type": 0,
        "meta_classification_type": "U",
        "meta_norad_cat_id": 32320,
        "meta_element_set_no": 999,
        "meta_rev_at_epoch": 62275,
        "meta_bstar": 0.00057587,
        "meta_mean_motion_dot": 1.65e-05,
        "meta_mean_motion_ddot": 0,
        "tle_line1": "1 32320U 99025CXM 25353.85246508  .00001650  00000+0  57587-3 0  9997",
        "tle_line2": "2 32320 100.3749 212.3770 0056304  28.0804 332.3393 14.36172060622756"
      },
      "geometry": {
        "type": "Point",
        "coordinates": [
          -139.31271991919843,
          -32.27239587050611
        ]
      }
    },
    {
      "type": "Feature",
      "properties": {
        "norad_id": 32322,
        "name": "FENGYUN 1C DEB",
        "group": "fengyun-1c-debris",
        "lat": -2.267609441347609,
        "lon": 55.48881926308403,
        "alt_km": 1208.5250298086048,
        "timestamp": "2025-12-21T05:44:51.871909+00:00",
        "meta_object_name": "FENGYUN 1C DEB",
        "meta_object_id": "1999-025CXP",
        "meta_epoch": "2025-12-14T10:53:55.069440",
        "meta_mean_motion": 13.34140206,
        "meta_eccentricity": 0.04192174,
        "meta_inclination": 98.3703,
        "meta_ra_of_asc_node": 230.2532,
        "meta_arg_of_pericenter": 93.3217,
        "meta_mean_anomaly": 271.5949,
        "meta_ephemeris_type": 0,
        "meta_classification_type": "U",
        "meta_norad_cat_id": 32322,
        "meta_element_set_no": 999,
        "meta_rev_at_epoch": 60402,
        "meta_bstar": 0.0014557048,
        "meta_mean_motion_dot": 1.161e-05,
        "meta_mean_motion_ddot": 0,
        "tle_line1": "1 32322U 99025CXP 25348.45410960  .00001161  00000+0  14557-2 0  9990",
        "tle_line2": "2 32322  98.3703 230.2532 0419217  93.3217 271.5949 13.34140206604023"
      },
      "geometry": {
        "type": "Point",
        "coordinates": [
          55.48881926308403,
          -2.267609441347609
        ]
      }
    },
    {
      "type": "Feature",
      "properties": {
        "norad_id": 32323,
        "name": "FENGYUN 1C DEB",
        "group": "fengyun-1c-debris",
        "lat": 55.021674026484014,
        "lon": -29.692170035768495,
        "alt_km": 846.3703994450852,
        "timestamp": "2025-12-21T05:44:51.871921+00:00",
        "meta_object_name": "FENGYUN 1C DEB",
        "meta_object_id": "1999-025CXQ",
        "meta_epoch": "2025-12-19T15:19:13.533312",
        "meta_mean_motion": 13.96612746,
        "meta_eccentricity": 0.015623,
        "meta_inclination": 98.5704,
        "meta_ra_of_asc_node": 136.3682,
        "meta_arg_of_pericenter": 190.9743,
        "meta_mean_anomaly": 168.7999,
        "meta_ephemeris_type": 0,
        "meta_classification_type": "U",
        "meta_norad_cat_id": 32323,
        "meta_element_set_no": 999,
        "meta_rev_at_epoch": 60366,
        "meta_bstar": 0.0022503,
        "meta_mean_motion_dot": 3.415e-05,
        "meta_mean_motion_ddot": 0,
        "tle_line1": "1 32323U 99025CXQ 25353.63835108  .00003415  00000+0  22503-2 0  9996",
        "tle_line2": "2 32323  98.5704 136.3682 0156230 190.9743 168.7999 13.96612746603662"
      },
      "geometry": {
        "type": "Point",
        "coordinates": [
          -29.692170035768495,
          55.021674026484014
        ]
      }
    },
    {
      "type": "Feature",
      "properties": {
        "norad_id": 32324,
        "name": "FENGYUN 1C DEB",
        "group": "fengyun-1c-debris",
        "lat": -29.674723953797336,
        "lon": 102.97698931176254,
        "alt_km": 837.0462557468172,
        "timestamp": "2025-12-21T05:44:51.871931+00:00",
        "meta_object_name": "FENGYUN 1C DEB",
        "meta_object_id": "1999-025CXR",
        "meta_epoch": "2025-12-18T13:08:05.064576",
        "meta_mean_motion": 14.09156551,
        "meta_eccentricity": 0.00497513,
        "meta_inclination": 99.5334,
        "meta_ra_of_asc_node": 94.6358,
        "meta_arg_of_pericenter": 8.0647,
        "meta_mean_anomaly": 352.131,
        "meta_ephemeris_type": 0,
        "meta_classification_type": "U",
        "meta_norad_cat_id": 32324,
        "meta_element_set_no": 999,
        "meta_rev_at_epoch": 64080,
        "meta_bstar": 0.00035821662,
        "meta_mean_motion_dot": 5.8e-06,
        "meta_mean_motion_ddot": 0,
        "tle_line1": "1 32324U 99025CXR 25352.54728084  .00000580  00000+0  35822-3 0  9999",
        "tle_line2": "2 32324  99.5334  94.6358 0049751   8.0647 352.1310 14.09156551640805"
      },
      "geometry": {
        "type": "Point",
        "coordinates": [
          102.97698931176254,
          -29.674723953797336
        ]
      }
    },
    {
      "type": "Feature",
      "properties": {
        "norad_id": 32326,
        "name": "FENGYUN 1C DEB",
        "group": "fengyun-1c-debris",
        "lat": 74.36403121262707,
        "lon": -108.62476860420163,
        "alt_km": 771.2303089721618,
        "timestamp": "2025-12-21T05:44:51.871941+00:00",
        "meta_object_name": "FENGYUN 1C DEB",
        "meta_object_id": "1999-025CXT",
        "meta_epoch": "2025-12-20T01:19:13.944000",
        "meta_mean_motion": 13.69290639,
        "meta_eccentricity": 0.03867915,
        "meta_inclination": 98.4915,
        "meta_ra_of_asc_node": 282.5879,
        "meta_arg_of_pericenter": 119.8072,
        "meta_mean_anomaly": 244.2123,
        "meta_ephemeris_type": 0,
        "meta_classification_type": "U",
        "meta_norad_cat_id": 32326,
        "meta_element_set_no": 999,
        "meta_rev_at_epoch": 63282,
        "meta_bstar": 0.00037920229,
        "meta_mean_motion_dot": 5.24e-06,
        "meta_mean_motion_ddot": 0,
        "tle_line1": "1 32326U 99025CXT 25354.05502250  .00000524  00000+0  37920-3 0  9993",
        "tle_line2": "2 32326  98.4915 282.5879 0386791 119.8072 244.2123 13.69290639632824"
      },
      "geometry": {
        "type": "Point",
        "coordinates": [
          -108.62476860420163,
          74.36403121262707
        ]
      }
    }
  ]
}